[{"OBJECT_NAME":"SAUDISAT 1C (SO-50)","OBJECT_ID":"2002-058C","EPOCH":"2026-04-05T20:44:03.854400","MEAN_MOTION":14.82891707,"ECCENTRICITY":0.0075482,"INCLINATION":64.5551,"RA_OF_ASC_NODE":352.7248,"ARG_OF_PERICENTER":275.6576,"MEAN_ANOMALY":83.5926,"EPHEMERIS_TYPE":0,"CLASSIFICATION_TYPE":"U","NORAD_CAT_ID":27607,"ELEMENT_SET_NO":999,"REV_AT_EPOCH":25373,"BSTAR":0.00020859,"MEAN_MOTION_DOT":1.625e-5,"MEAN_MOTION_DDOT":0},{"OBJECT_NAME":"SAUDISAT 2","OBJECT_ID":"2004-025F","EPOCH":"2026-04-05T13:27:21.951936","MEAN_MOTION":14.56639359,"ECCENTRICITY":0.0025162,"INCLINATION":98.5512,"RA_OF_ASC_NODE":93.6705,"ARG_OF_PERICENTER":157.2926,"MEAN_ANOMALY":202.939,"EPHEMERIS_TYPE":0,"CLASSIFICATION_TYPE":"U","NORAD_CAT_ID":28371,"ELEMENT_SET_NO":999,"REV_AT_EPOCH":15517,"BSTAR":0.00011176,"MEAN_MOTION_DOT":4.51e-6,"MEAN_MOTION_DDOT":0},{"OBJECT_NAME":"SAUDISAT 3","OBJECT_ID":"2007-012B","EPOCH":"2026-04-05T20:02:54.200256","MEAN_MOTION":14.71379863,"ECCENTRICITY":0.0015972,"INCLINATION":98.1391,"RA_OF_ASC_NODE":46.2189,"ARG_OF_PERICENTER":96.9994,"MEAN_ANOMALY":263.303,"EPHEMERIS_TYPE":0,"CLASSIFICATION_TYPE":"U","NORAD_CAT_ID":31118,"ELEMENT_SET_NO":999,"REV_AT_EPOCH":1710,"BSTAR":9.0796e-5,"MEAN_MOTION_DOT":5.12e-6,"MEAN_MOTION_DDOT":0},{"OBJECT_NAME":"PISAT","OBJECT_ID":"2016-059B","EPOCH":"2026-04-05T17:37:04.524960","MEAN_MOTION":14.68848584,"ECCENTRICITY":0.0030563,"INCLINATION":97.8194,"RA_OF_ASC_NODE":99.3062,"ARG_OF_PERICENTER":77.74,"MEAN_ANOMALY":282.7226,"EPHEMERIS_TYPE":0,"CLASSIFICATION_TYPE":"U","NORAD_CAT_ID":41784,"ELEMENT_SET_NO":999,"REV_AT_EPOCH":50910,"BSTAR":0.00029474,"MEAN_MOTION_DOT":1.687e-5,"MEAN_MOTION_DDOT":0},{"OBJECT_NAME":"FLYING LAPTOP","OBJECT_ID":"2017-042G","EPOCH":"2026-04-05T20:24:58.828032","MEAN_MOTION":15.00714581,"ECCENTRICITY":0.0019681,"INCLINATION":97.4368,"RA_OF_ASC_NODE":254.334,"ARG_OF_PERICENTER":11.0406,"MEAN_ANOMALY":349.1247,"EPHEMERIS_TYPE":0,"CLASSIFICATION_TYPE":"U","NORAD_CAT_ID":42831,"ELEMENT_SET_NO":999,"REV_AT_EPOCH":47560,"BSTAR":0.00046658,"MEAN_MOTION_DOT":5.879e-5,"MEAN_MOTION_DDOT":0},{"OBJECT_NAME":"SALSAT","OBJECT_ID":"2020-068K","EPOCH":"2026-04-05T13:55:30.104256","MEAN_MOTION":15.28738181,"ECCENTRICITY":0.0009619,"INCLINATION":97.8868,"RA_OF_ASC_NODE":94.287,"ARG_OF_PERICENTER":186.5581,"MEAN_ANOMALY":173.5533,"EPHEMERIS_TYPE":0,"CLASSIFICATION_TYPE":"U","NORAD_CAT_ID":46495,"ELEMENT_SET_NO":999,"REV_AT_EPOCH":30426,"BSTAR":0.00035593,"MEAN_MOTION_DOT":9.877e-5,"MEAN_MOTION_DDOT":0}]
